{
  "norad_id": 68577,
  "name": "KUIPER-00194",
  "history": [
    {
      "epoch": "2026-04-09T12:00:55.099872Z",
      "apogee_km": 453.8095612581037,
      "perigee_km": 449.64197899577175,
      "latitude_deg": 6.809744259872885e-05,
      "longitude_deg": 131.08743582204738,
      "height_km": 452.736904002275,
      "semi_major_axis_km": 6829.862770126937,
      "eccentricity": 0.0003051,
      "inclination_deg": 51.8755,
      "raan_deg": 149.0649,
      "arg_perigee_deg": 96.945,
      "mean_anomaly_deg": 263.1885,
      "mean_motion_rev_day": 15.38100791
    },
    {
      "epoch": "2026-04-09T12:00:55.100736Z",
      "apogee_km": 453.8096265955255,
      "perigee_km": 449.6419077377459,
      "latitude_deg": 6.719690243748151e-05,
      "longitude_deg": 131.08743150937715,
      "height_km": 452.736909300277,
      "semi_major_axis_km": 6829.862767166635,
      "eccentricity": 0.00030511,
      "inclination_deg": 51.8755,
      "raan_deg": 149.0649,
      "arg_perigee_deg": 96.945,
      "mean_anomaly_deg": 263.1885,
      "mean_motion_rev_day": 15.38100792
    },
    {
      "epoch": "2026-04-11T20:00:01.000224Z",
      "apogee_km": 453.63399921345444,
      "perigee_km": 449.5402625693987,
      "latitude_deg": -26.93986933325163,
      "longitude_deg": -25.64555566479785,
      "height_km": 461.0013106190938,
      "semi_major_axis_km": 6829.724130891426,
      "eccentricity": 0.0002997,
      "inclination_deg": 51.8763,
      "raan_deg": 137.7724,
      "arg_perigee_deg": 105.2597,
      "mean_anomaly_deg": 219.8735,
      "mean_motion_rev_day": 15.38147625
    },
    {
      "epoch": "2026-04-13T06:00:02.000160Z",
      "apogee_km": 453.61269930186063,
      "perigee_km": 449.7393757320242,
      "latitude_deg": -49.444831753567115,
      "longitude_deg": 85.24346215913903,
      "height_km": 470.2187835336796,
      "semi_major_axis_km": 6829.813037516942,
      "eccentricity": 0.00028356,
      "inclination_deg": 51.8766,
      "raan_deg": 130.9158,
      "arg_perigee_deg": 105.6863,
      "mean_anomaly_deg": 148.7409,
      "mean_motion_rev_day": 15.38117591
    },
    {
      "epoch": "2026-04-14T20:00:01.999008Z",
      "apogee_km": 453.8534933740948,
      "perigee_km": 449.8565820336298,
      "latitude_deg": 20.661335023076308,
      "longitude_deg": -2.645265742805816,
      "height_km": 452.13698344163964,
      "semi_major_axis_km": 6829.992037703862,
      "eccentricity": 0.0002926,
      "inclination_deg": 51.8759,
      "raan_deg": 123.2518,
      "arg_perigee_deg": 113.5947,
      "mean_anomaly_deg": 273.0231,
      "mean_motion_rev_day": 15.38057125
    },
    {
      "epoch": "2026-04-15T13:02:21.062112Z",
      "apogee_km": 453.7859975854626,
      "perigee_km": 449.77820105798037,
      "latitude_deg": -2.7836074791738086e-05,
      "longitude_deg": 80.52406318164314,
      "height_km": 453.35724553852924,
      "semi_major_axis_km": 6829.919099321721,
      "eccentricity": 0.0002934,
      "inclination_deg": 51.8756,
      "raan_deg": 119.8157,
      "arg_perigee_deg": 114.0116,
      "mean_anomaly_deg": 246.1178,
      "mean_motion_rev_day": 15.38081763
    },
    {
      "epoch": "2026-04-16T20:13:36.617088Z",
      "apogee_km": 453.7026641323764,
      "perigee_km": 449.72632459235865,
      "latitude_deg": 1.6325448125013626e-05,
      "longitude_deg": -34.861943689193424,
      "height_km": 453.4724278392204,
      "semi_major_axis_km": 6829.851494362367,
      "eccentricity": 0.0002911,
      "inclination_deg": 51.8753,
      "raan_deg": 113.5253,
      "arg_perigee_deg": 120.1306,
      "mean_anomaly_deg": 239.997,
      "mean_motion_rev_day": 15.381046
    }
  ]
}